[{"OBJECT_NAME":"STARLINK-2711","OBJECT_ID":"2021-044AM","EPOCH":"2026-03-09T08:27:33.726816","MEAN_MOTION":15.06405007,"ECCENTRICITY":0.00013024,"INCLINATION":53.053,"RA_OF_ASC_NODE":113.1306,"ARG_OF_PERICENTER":86.1414,"MEAN_ANOMALY":273.9724,"EPHEMERIS_TYPE":0,"CLASSIFICATION_TYPE":"U","NORAD_CAT_ID":48673,"ELEMENT_SET_NO":999,"REV_AT_EPOCH":26379,"BSTAR":4.3637786e-5,"MEAN_MOTION_DOT":3.69e-6,"MEAN_MOTION_DDOT":0},{"OBJECT_NAME":"DELTA 1 DEB","OBJECT_ID":"1978-026BU","EPOCH":"2026-03-09T11:22:20.910432","MEAN_MOTION":14.96481719,"ECCENTRICITY":0.00669454,"INCLINATION":98.7967,"RA_OF_ASC_NODE":254.5698,"ARG_OF_PERICENTER":166.8222,"MEAN_ANOMALY":193.4765,"EPHEMERIS_TYPE":0,"CLASSIFICATION_TYPE":"U","NORAD_CAT_ID":12227,"ELEMENT_SET_NO":999,"REV_AT_EPOCH":38498,"BSTAR":0.0006297912,"MEAN_MOTION_DOT":7.412e-5,"MEAN_MOTION_DDOT":0}]
